{
    "links": {
        "self": "http://www.neowsapp.com/rest/v1/neo/3843179?api_key=iIulBulltgU6a56xZRHN4H3l9WmuAYTsLGpBGhQ2"
    },
    "id": "3843179",
    "neo_reference_id": "3843179",
    "name": "(2019 NM4)",
    "designation": "2019 NM4",
    "nasa_jpl_url": "http://ssd.jpl.nasa.gov/sbdb.cgi?sstr=3843179",
    "absolute_magnitude_h": 23.9,
    "estimated_diameter": {
        "kilometers": {
            "estimated_diameter_min": 0.04411182,
            "estimated_diameter_max": 0.0986370281
        },
        "meters": {
            "estimated_diameter_min": 44.1118199997,
            "estimated_diameter_max": 98.6370281305
        },
        "miles": {
            "estimated_diameter_min": 0.0274098057,
            "estimated_diameter_max": 0.0612901888
        },
        "feet": {
            "estimated_diameter_min": 144.7238235278,
            "estimated_diameter_max": 323.6123073718
        }
    },
    "is_potentially_hazardous_asteroid": false,
    "close_approach_data": [
        {
            "close_approach_date": "2019-07-10",
            "close_approach_date_full": "2019-Jul-10 02:06",
            "epoch_date_close_approach": 1562724360000,
            "relative_velocity": {
                "kilometers_per_second": "7.9023142078",
                "kilometers_per_hour": "28448.3311479042",
                "miles_per_hour": "17676.6866513186"
            },
            "miss_distance": {
                "astronomical": "0.0230442027",
                "lunar": "8.9641948503",
                "kilometers": "3447363.639768249",
                "miles": "2142092.4356058762"
            },
            "orbiting_body": "Earth"
        }
    ],
    "orbital_data": {
        "orbit_id": "2",
        "orbit_determination_date": "2019-07-10 05:37:12",
        "first_observation_date": "2019-07-06",
        "last_observation_date": "2019-07-09",
        "data_arc_in_days": 3,
        "observations_used": 42,
        "orbit_uncertainty": "8",
        "minimum_orbit_intersection": ".00321987",
        "jupiter_tisserand_invariant": "3.970",
        "epoch_osculation": "2458671.5",
        "eccentricity": ".4453695449283421",
        "semi_major_axis": "1.780649327629872",
        "inclination": "1.11392787840428",
        "ascending_node_longitude": "329.5037059890911",
        "orbital_period": "867.8926830014786",
        "perihelion_distance": ".9876023469063978",
        "perihelion_argument": "348.0895362263151",
        "aphelion_distance": "2.573696308353347",
        "perihelion_time": "2458699.673596257181",
        "mean_anomaly": "348.3136534605767",
        "mean_motion": ".4147978281773193",
        "equinox": "J2000",
        "orbit_class": {
            "orbit_class_type": "APO",
            "orbit_class_description": "Near-Earth asteroid orbits which cross the Earth’s orbit similar to that of 1862 Apollo",
            "orbit_class_range": "a (semi-major axis) > 1.0 AU; q (perihelion) < 1.017 AU"
        }
    },
    "is_sentry_object": false
}